ONEWEB-0142             
1 47288U 20100AG  24051.83665929  .00000167  00000+0  42947-3 0  9994
2 47288  87.9044 159.2656 0001470 112.3936 247.7348 13.12441084153523
ONEWEB-0143             
1 47289U 20100AH  24051.78980002 -.00000387  00000+0 -11099-2 0  9990
2 47289  87.9044 159.2939 0001793 108.7197 251.4126 13.12444599153490
ONEWEB-0144             
1 47290U 20100AJ  24051.83904015  .00000044  00000+0  87392-4 0  9997
2 47290  87.9044 159.2680 0001359 111.1042 249.0232 13.12440849153428
ONEWEB-0145             
1 47291U 20100AK  24051.81045223  .00000197  00000+0  51236-3 0  9999
2 47291  87.9045 159.2975 0001593 107.9968 252.1334 13.12444766153618
ONEWEB-0146             
1 47292U 20100AL  24051.80570791  .00000057  00000+0  12409-3 0  9996
2 47292  87.9044 159.2805 0002237 105.7305 254.4071 13.12444923153525
ONEWEB-0147             
1 47293U 20100AM  24051.84857080 -.00000254  00000+0 -74215-3 0  9994
2 47293  87.9042 159.2705 0001562  96.8162 263.3144 13.12442697153429
ONEWEB-0115             
1 48042U 21025A   24051.77582911 -.00000331  00000+0 -94169-3 0  9990
2 48042  87.8980 128.9335 0002074 102.3868 257.7493 13.13468228142352
ONEWEB-0152             
1 48043U 21025B   24051.71235264 -.00000179  00000+0 -52393-3 0  9994
2 48043  87.8984 128.9387 0001910 100.8311 259.3033 13.13470954142300
